{
  "links" : {
    "next" : "https://api.nasa.gov/neo/rest/v1/neo/browse?page=43&size=20&api_key=jqAGvNAwUIBu4fl9FSOjdm3V4F7hIglRzI6pdX9d",
    "prev" : "https://api.nasa.gov/neo/rest/v1/neo/browse?page=41&size=20&api_key=jqAGvNAwUIBu4fl9FSOjdm3V4F7hIglRzI6pdX9d",
    "self" : "https://api.nasa.gov/neo/rest/v1/neo/browse?page=42&size=20&api_key=jqAGvNAwUIBu4fl9FSOjdm3V4F7hIglRzI6pdX9d"
  },
  "page" : {
    "size" : 20,
    "total_elements" : 20750,
    "total_pages" : 1038,
    "number" : 42
  },
  "near_earth_objects" : [ {
    "links" : {
      "self" : "https://api.nasa.gov/neo/rest/v1/neo/3838214?api_key=jqAGvNAwUIBu4fl9FSOjdm3V4F7hIglRzI6pdX9d"
    },
    "neo_reference_id" : "3838214",
    "name" : "(2019 CF3)",
    "designation" : "2019 CF3",
    "nasa_jpl_url" : "http://ssd.jpl.nasa.gov/sbdb.cgi?sstr=3838214",
    "absolute_magnitude_h" : 25.39,
    "estimated_diameter" : {
      "kilometers" : {
        "estimated_diameter_min" : 0.0222103282,
        "estimated_diameter_max" : 0.0496638037
      },
      "meters" : {
        "estimated_diameter_min" : 22.2103282246,
        "estimated_diameter_max" : 49.6638037128
      },
      "miles" : {
        "estimated_diameter_min" : 0.0138008539,
        "estimated_diameter_max" : 0.0308596474
      },
      "feet" : {
        "estimated_diameter_min" : 72.8685332524,
        "estimated_diameter_max" : 162.938993773
      }
    },
    "is_potentially_hazardous_asteroid" : false,
    "close_approach_data" : [ {
      "close_approach_date" : "2019-01-29",
      "epoch_date_close_approach" : 1548748800000,
      "relative_velocity" : {
        "kilometers_per_second" : "12.192808137",
        "kilometers_per_hour" : "43894.1092932608",
        "miles_per_hour" : "27274.0925216931"
      },
      "miss_distance" : {
        "astronomical" : "0.0259099655",
        "lunar" : "10.0789766312",
        "kilometers" : "3876075.75",
        "miles" : "2408481.75"
      },
      "orbiting_body" : "Earth"
    }, {
      "close_approach_date" : "2021-02-20",
      "epoch_date_close_approach" : 1613808000000,
      "relative_velocity" : {
        "kilometers_per_second" : "22.5813837971",
        "kilometers_per_hour" : "81292.9816694135",
        "miles_per_hour" : "50512.297415642"
      },
      "miss_distance" : {
        "astronomical" : "0.3261093806",
        "lunar" : "126.856552124",
        "kilometers" : "48785268",
        "miles" : "30313760"
      },
      "orbiting_body" : "Earth"
    } ],
    "orbital_data" : {
      "orbit_id" : "1",
      "orbit_determination_date" : "2019-02-10 08:42:02",
      "first_observation_date" : "2019-02-08",
      "last_observation_date" : "2019-02-10",
      "data_arc_in_days" : 2,
      "observations_used" : 24,
      "orbit_uncertainty" : "8",
      "minimum_orbit_intersection" : ".00808689",
      "jupiter_tisserand_invariant" : "4.175",
      "epoch_osculation" : "2458523.5",
      "eccentricity" : ".5084706290293345",
      "semi_major_axis" : "1.616352020129119",
      "inclination" : "5.194670624959773",
      "ascending_node_longitude" : "126.812012258276",
      "orbital_period" : "750.5892711968504",
      "perihelion_distance" : ".7944844917212306",
      "perihelion_argument" : "300.5059364018836",
      "aphelion_distance" : "2.438219548537008",
      "perihelion_time" : "2458470.409322270868",
      "mean_anomaly" : "25.46351875242168",
      "mean_motion" : ".4796231625133182",
      "equinox" : "J2000",
      "orbit_class" : {
        "orbit_class_type" : "APO",
        "orbit_class_range" : "a (semi-major axis) > 1.0 AU; q (perihelion) < 1.017 AU",
        "orbit_class_description" : "Near-Earth asteroid orbits which cross the Earth’s orbit similar to that of 1862 Apollo"
      }
    },
    "is_sentry_object" : false
  }, {
    "links" : {
      "self" : "https://api.nasa.gov/neo/rest/v1/neo/3838788?api_key=jqAGvNAwUIBu4fl9FSOjdm3V4F7hIglRzI6pdX9d"
    },
    "neo_reference_id" : "3838788",
    "name" : "(2019 CY5)",
    "designation" : "2019 CY5",
    "nasa_jpl_url" : "http://ssd.jpl.nasa.gov/sbdb.cgi?sstr=3838788",
    "absolute_magnitude_h" : 26.081,
    "estimated_diameter" : {
      "kilometers" : {
        "estimated_diameter_min" : 0.0161567861,
        "estimated_diameter_max" : 0.0361276721
      },
      "meters" : {
        "estimated_diameter_min" : 16.1567861455,
        "estimated_diameter_max" : 36.1276721193
      },
      "miles" : {
        "estimated_diameter_min" : 0.0100393584,
        "estimated_diameter_max" : 0.0224486878
      },
      "feet" : {
        "estimated_diameter_min" : 53.0078302576,
        "estimated_diameter_max" : 118.5291117958
      }
    },
    "is_potentially_hazardous_asteroid" : false,
    "close_approach_data" : [ {
      "close_approach_date" : "2019-02-11",
      "epoch_date_close_approach" : 1549872000000,
      "relative_velocity" : {
        "kilometers_per_second" : "8.1554168647",
        "kilometers_per_hour" : "29359.5007129282",
        "miles_per_hour" : "18242.8519846526"
      },
      "miss_distance" : {
        "astronomical" : "0.0025247973",
        "lunar" : "0.9821461439",
        "kilometers" : "377704.3125",
        "miles" : "234694.578125"
      },
      "orbiting_body" : "Moon"
    }, {
      "close_approach_date" : "2019-02-12",
      "epoch_date_close_approach" : 1549958400000,
      "relative_velocity" : {
        "kilometers_per_second" : "8.5212374657",
        "kilometers_per_hour" : "30676.4548765611",
        "miles_per_hour" : "19061.1560870499"
      },
      "miss_distance" : {
        "astronomical" : "0.0036480242",
        "lunar" : "1.4190814495",
        "kilometers" : "545736.6875",
        "miles" : "339105.03125"
      },
      "orbiting_body" : "Earth"
    } ],
    "orbital_data" : {
      "orbit_id" : "2",
      "orbit_determination_date" : "2019-02-19 06:42:50",
      "first_observation_date" : "2019-02-15",
      "last_observation_date" : "2019-02-19",
      "data_arc_in_days" : 4,
      "observations_used" : 39,
      "orbit_uncertainty" : "8",
      "minimum_orbit_intersection" : ".00206895",
      "jupiter_tisserand_invariant" : "3.635",
      "epoch_osculation" : "2458531.5",
      "eccentricity" : ".5222226037245327",
      "semi_major_axis" : "2.018405116957938",
      "inclination" : "5.803535526844497",
      "ascending_node_longitude" : "141.195181661683",
      "orbital_period" : "1047.396057008108",
      "perihelion_distance" : ".9643483414092436",
      "perihelion_argument" : "340.4893806863437",
      "aphelion_distance" : "3.072461892506632",
      "perihelion_time" : "2458510.015845618224",
      "mean_anomaly" : "7.384308472128886",
      "mean_motion" : ".3437095238150331",
      "equinox" : "J2000",
      "orbit_class" : {
        "orbit_class_type" : "APO",
        "orbit_class_range" : "a (semi-major axis) > 1.0 AU; q (perihelion) < 1.017 AU",
        "orbit_class_description" : "Near-Earth asteroid orbits which cross the Earth’s orbit similar to that of 1862 Apollo"
      }
    },
    "is_sentry_object" : false
  } ]
}